$$SOE
2460721.500000000, A.D. 2025-Feb-15 00:00:00.0000, 1.248639937376596E+08, 3.346677719849757E+08, -1.278223641035751E+07,
2460728.500000000, A.D. 2025-Feb-22 00:00:00.0000, 1.145523728941924E+08, 3.397425375529804E+08, -1.426327790567553E+07,
2460735.500000000, A.D. 2025-Mar-01 00:00:00.0000, 1.041203586338299E+08, 3.444605151890154E+08, -1.572932974120931E+07,
2460742.500000000, A.D. 2025-Mar-08 00:00:00.0000, 9.358016772563566E+07, 3.488208891484033E+08, -1.717903946271211E+07,
2460749.500000000, A.D. 2025-Mar-15 00:00:00.0000, 8.294385301649155E+07, 3.528232301534595E+08, -1.861110187645859E+07,
2460756.500000000, A.D. 2025-Mar-22 00:00:00.0000, 7.222329354189584E+07, 3.564674789584069E+08, -2.002425831568451E+07,
2460763.500000000, A.D. 2025-Mar-29 00:00:00.0000, 6.143018707381281E+07, 3.597539280573969E+08, -2.141729613340372E+07,
2460770.500000000, A.D. 2025-Apr-05 00:00:00.0000, 5.057604535969543E+07, 3.626832047199617E+08, -2.278904820710070E+07,
2460777.500000000, A.D. 2025-Apr-12 00:00:00.0000, 3.967219005653469E+07, 3.652562554880498E+08, -2.413839228057091E+07,
2460784.500000000, A.D. 2025-Apr-19 00:00:00.0000, 2.872974910160718E+07, 3.674743312777411E+08, -2.546425020687515E+07,
2460791.500000000, A.D. 2025-Apr-26 00:00:00.0000, 1.775965372348394E+07, 3.693389729035581E+08, -2.676558714253715E+07,
2460798.500000000, A.D. 2025-May-03 00:00:00.0000, 6.772636142263881E+06, 3.708519970607352E+08, -2.804141070987281E+07,
2460805.500000000, A.D. 2025-May-10 00:00:00.0000, -4.220772074010157E+06, 3.720154827855247E+08, -2.929077013671391E+07,
2460812.500000000, A.D. 2025-May-17 00:00:00.0000, -1.521024101867540E+07, 3.728317583595744E+08, -3.051275538691539E+07,
2460819.500000000, A.D. 2025-May-24 00:00:00.0000, -2.618564270341565E+07, 3.733033886071759E+08, -3.170649630805530E+07,
2460826.500000000, A.D. 2025-May-31 00:00:00.0000, -3.713705019842258E+07, 3.734331628968611E+08, -3.287116181473891E+07,
2460833.500000000, A.D. 2025-Jun-07 00:00:00.0000, -4.805473610686003E+07, 3.732240850518888E+08, -3.400595897778720E+07,
2460840.500000000, A.D. 2025-Jun-14 00:00:00.0000, -5.892917278204563E+07, 3.726793644988826E+08, -3.511013186202531E+07,
2460847.500000000, A.D. 2025-Jun-21 00:00:00.0000, -6.975103311291127E+07, 3.718024053695663E+08, -3.618296049418631E+07,
2460854.500000000, A.D. 2025-Jun-28 00:00:00.0000, -8.051118879585083E+07, 3.705967953106403E+08, -3.722376010660800E+07,
2460861.500000000, A.D. 2025-Jul-05 00:00:00.0000, -9.120070764856304E+07, 3.690662961536335E+08, -3.823188034606199E+07,
2460868.500000000, A.D. 2025-Jul-12 00:00:00.0000, -1.018108511904662E+08, 3.672148356275546E+08, -3.920670440739778E+07,
2460875.500000000, A.D. 2025-Jul-19 00:00:00.0000, -1.123330723334897E+08, 3.650464995247824E+08, -4.014764815856968E+07,
2460882.500000000, A.D. 2025-Jul-26 00:00:00.0000, -1.227590130050857E+08, 3.625655242495934E+08, -4.105415928304841E+07,
2460889.500000000, A.D. 2025-Aug-02 00:00:00.0000, -1.330805016675520E+08, 3.597762897569046E+08, -4.192571644581561E+07,
2460896.500000000, A.D. 2025-Aug-09 00:00:00.0000, -1.432895507375966E+08, 3.566833128522279E+08, -4.276182848800695E+07,
2460903.500000000, A.D. 2025-Aug-16 00:00:00.0000, -1.533783538546439E+08, 3.532912407749670E+08, -4.356203366389686E+07,
2460910.500000000, A.D. 2025-Aug-23 00:00:00.0000, -1.633392827290842E+08, 3.496048450667146E+08, -4.432589894696063E+07,
2460917.500000000, A.D. 2025-Aug-30 00:00:00.0000, -1.731648832643647E+08, 3.456290164241554E+08, -4.505301937806895E+07,
2460924.500000000, A.D. 2025-Sep-06 00:00:00.0000, -1.828478723928295E+08, 3.413687615247393E+08, -4.574301724583410E+07,
2460931.500000000, A.D. 2025-Sep-13 00:00:00.0000, -1.923811373124970E+08, 3.368291993310140E+08, -4.639554115048760E+07,
2460938.500000000, A.D. 2025-Sep-20 00:00:00.0000, -2.017577338635146E+08, 3.320155552111965E+08, -4.701026538504995E+07,
2460945.500000000, A.D. 2025-Sep-27 00:00:00.0000, -2.109708830017838E+08, 3.269331559698410E+08, -4.758688947593324E+07,
2460952.500000000, A.D. 2025-Oct-04 00:00:00.0000, -2.200139674004127E+08, 3.215874263146496E+08, -4.812513765434387E+07,
2460959.500000000, A.D. 2025-Oct-11 00:00:00.0000, -2.288805285636874E+08, 3.159838857996206E+08, -4.862475830021888E+07,
2460966.500000000, A.D. 2025-Oct-18 00:00:00.0000, -2.375642641837691E+08, 3.101281459526016E+08, -4.908552340615620E+07,
2460973.500000000, A.D. 2025-Oct-25 00:00:00.0000, -2.460590256162961E+08, 3.040259075848290E+08, -4.950722807381357E+07,
2460980.500000000, A.D. 2025-Nov-01 00:00:00.0000, -2.543588154495386E+08, 2.976829582883749E+08, -4.988969004676858E+07,
2460987.500000000, A.D. 2025-Nov-08 00:00:00.0000, -2.624577851433486E+08, 2.911051700816369E+08, -5.023274928713686E+07,
2460994.500000000, A.D. 2025-Nov-15 00:00:00.0000, -2.703502325981454E+08, 2.842984971347626E+08, -5.053626761509097E+07,
2461001.500000000, A.D. 2025-Nov-22 00:00:00.0000, -2.780305992581500E+08, 2.772689737838743E+08, -5.080012843026564E+07,
2461008.500000000, A.D. 2025-Nov-29 00:00:00.0000, -2.854934669094777E+08, 2.700227139569434E+08, -5.102423640805248E+07,
2461015.500000000, A.D. 2025-Dec-06 00:00:00.0000, -2.927335564594553E+08, 2.625659118647309E+08, -5.120851697349714E+07,
2461022.500000000, A.D. 2025-Dec-13 00:00:00.0000, -2.997457282699301E+08, 2.549048405778729E+08, -5.135291586839897E+07,
2461029.500000000, A.D. 2025-Dec-20 00:00:00.0000, -3.065249805539927E+08, 2.470458495003753E+08, -5.145739904674558E+07,
2461036.500000000, A.D. 2025-Dec-27 00:00:00.0000, -3.130664469176177E+08, 2.389953633170725E+08, -5.152195258746607E+07,
2461043.500000000, A.D. 2026-Jan-03 00:00:00.0000, -3.193653945150469E+08, 2.307598817913553E+08, -5.154658254202596E+07,
2461050.500000000, A.D. 2026-Jan-10 00:00:00.0000, -3.254172227143611E+08, 2.223459797268330E+08, -5.153131478270947E+07,
2461057.500000000, A.D. 2026-Jan-17 00:00:00.0000, -3.312174620459784E+08, 2.137603069925958E+08, -5.147619488006112E+07,
2461064.500000000, A.D. 2026-Jan-24 00:00:00.0000, -3.367617733618594E+08, 2.050095886260385E+08, -5.138128801450039E+07,
2461071.500000000, A.D. 2026-Jan-31 00:00:00.0000, -3.420459471877348E+08, 1.961006249977124E+08, -5.124667892468528E+07,
2461078.500000000, A.D. 2026-Feb-07 00:00:00.0000, -3.470659032121930E+08, 1.870402919731337E+08, -5.107247190270495E+07,
2461085.500000000, A.D. 2026-Feb-14 00:00:00.0000, -3.518176896641753E+08, 1.778355410485096E+08, -5.085879086009595E+07,
2461092.500000000, A.D. 2026-Feb-21 00:00:00.0000, -3.562974821951305E+08, 1.684934000289626E+08, -5.060577945226624E+07,
2461099.500000000, A.D. 2026-Feb-28 00:00:00.0000, -3.605015833548420E+08, 1.590209753929420E+08, -5.031360106671944E+07,
2461106.500000000, A.D. 2026-Mar-07 00:00:00.0000, -3.644264247260680E+08, 1.494254543831083E+08, -4.998243864555305E+07,
2461113.500000000, A.D. 2026-Mar-14 00:00:00.0000, -3.680685689481162E+08, 1.397141044827583E+08, -4.961249478733804E+07,
2461120.500000000, A.D. 2026-Mar-21 00:00:00.0000, -3.714247098487951E+08, 1.298942731646717E+08, -4.920399205351439E+07,
2461127.500000000, A.D. 2026-Mar-28 00:00:00.0000, -3.744916727006668E+08, 1.199733889274282E+08, -4.875717321044621E+07,
2461134.500000000, A.D. 2026-Apr-04 00:00:00.0000, -3.772664152159957E+08, 1.099589626435211E+08, -4.827230143192316E+07,
2461141.500000000, A.D. 2026-Apr-11 00:00:00.0000, -3.797460290151559E+08, 9.985858885146309E+07, -4.774966051741419E+07,
2461148.500000000, A.D. 2026-Apr-18 00:00:00.0000, -3.819277414157103E+08, 8.967994697634865E+07, -4.718955514114743E+07,
2461155.500000000, A.D. 2026-Apr-25 00:00:00.0000, -3.838089175022538E+08, 7.943080248345312E+07, -4.659231113463680E+07,
2461162.500000000, A.D. 2026-May-02 00:00:00.0000, -3.853870624522733E+08, 6.911900792419381E+07, -4.595827580745438E+07,
2461169.500000000, A.D. 2026-May-09 00:00:00.0000, -3.866598239995757E+08, 5.875250379640205E+07, -4.528781832266708E+07,
2461176.500000000, A.D. 2026-May-16 00:00:00.0000, -3.876249946636905E+08, 4.833931934475704E+07, -4.458133014990725E+07,
2461183.500000000, A.D. 2026-May-23 00:00:00.0000, -3.882805136998662E+08, 3.788757431053827E+07, -4.383922551691486E+07,
2461190.500000000, A.D. 2026-May-30 00:00:00.0000, -3.886244708554287E+08, 2.740548193611898E+07, -4.306194164270718E+07,
2461197.500000000, A.D. 2026-Jun-06 00:00:00.0000, -3.886551122593508E+08, 1.690134993706970E+07, -4.224993899125458E+07,
2461204.500000000, A.D. 2026-Jun-13 00:00:00.0000, -3.883708447862096E+08, 6.383579629656930E+06, -4.140370186514300E+07,
2461211.500000000, A.D. 2026-Jun-20 00:00:00.0000, -3.877702393954180E+08, -4.139333873531697E+06, -4.052373905146173E+07,
2461218.500000000, A.D. 2026-Jun-27 00:00:00.0000, -3.868520351436307E+08, -1.465880075982620E+07, -3.961058438942521E+07,
2461225.500000000, A.D. 2026-Jul-04 00:00:00.0000, -3.856151438758014E+08, -2.516613570283583E+07, -3.866479732249981E+07,
2461232.500000000, A.D. 2026-Jul-11 00:00:00.0000, -3.840586553503246E+08, -3.565255729365692E+07, -3.768696346972235E+07,
2461239.500000000, A.D. 2026-Jul-18 00:00:00.0000, -3.821818427159357E+08, -4.610918771274334E+07, -3.667769522340073E+07,
2461246.500000000, A.D. 2026-Jul-25 00:00:00.0000, -3.799841683252966E+08, -5.652705266042459E+07, -3.563763237547956E+07,
2461253.500000000, A.D. 2026-Aug-01 00:00:00.0000, -3.774652898441522E+08, -6.689708161526199E+07, -3.456744278026287E+07,
2461260.500000000, A.D. 2026-Aug-08 00:00:00.0000, -3.746250664456663E+08, -7.721010847882675E+07, -3.346782307463546E+07,
2461267.500000000, A.D. 2026-Aug-15 00:00:00.0000, -3.714635646773760E+08, -8.745687218135814E+07, -3.233949945497007E+07,
2461274.500000000, A.D. 2026-Aug-22 00:00:00.0000, -3.679810647624971E+08, -9.762801605423011E+07, -3.118322833870926E+07,
2461281.500000000, A.D. 2026-Aug-29 00:00:00.0000, -3.641780696249669E+08, -1.077140873723519E+08, -2.999979681059704E+07,
$$EOE